STARLINK-31750          
1 59552U 24074U   26068.09884508 -.00002253  00000+0 -72380-4 0  9994
2 59552  43.0053 346.8855 0001350 260.2183  99.8516 15.27567967105923
FLOCK 4G-11             
1 62629U 25009W   26068.45629261  .00012672  00000+0  47740-3 0  9990
2 62629  97.3964 150.6183 0001611 333.5407  26.5750 15.27220677 63680
